{
  "links" : {
    "next" : "https://api.nasa.gov/neo/rest/v1/feed?start_date=2007-12-16&end_date=2007-12-16&detailed=true&api_key=t0TVs3DtDT2H8Oy2Zy8m2eVrNsAVKAexjcZXUckd",
    "prev" : "https://api.nasa.gov/neo/rest/v1/feed?start_date=2007-12-14&end_date=2007-12-14&detailed=true&api_key=t0TVs3DtDT2H8Oy2Zy8m2eVrNsAVKAexjcZXUckd",
    "self" : "https://api.nasa.gov/neo/rest/v1/feed?start_date=2007-12-15&end_date=2007-12-15&detailed=true&api_key=t0TVs3DtDT2H8Oy2Zy8m2eVrNsAVKAexjcZXUckd"
  },
  "element_count" : 6,
  "near_earth_objects" : {
    "2007-12-15" : [ {
      "links" : {
        "self" : "https://api.nasa.gov/neo/rest/v1/neo/3303217?api_key=t0TVs3DtDT2H8Oy2Zy8m2eVrNsAVKAexjcZXUckd"
      },
      "neo_reference_id" : "3303217",
      "name" : "(2005 WX)",
      "nasa_jpl_url" : "http://ssd.jpl.nasa.gov/sbdb.cgi?sstr=3303217",
      "absolute_magnitude_h" : 26.9,
      "estimated_diameter" : {
        "kilometers" : {
          "estimated_diameter_min" : 0.0110803882,
          "estimated_diameter_max" : 0.0247765013
        },
        "meters" : {
          "estimated_diameter_min" : 11.0803882126,
          "estimated_diameter_max" : 24.7765012606
        },
        "miles" : {
          "estimated_diameter_min" : 0.0068850319,
          "estimated_diameter_max" : 0.0153953994
        },
        "feet" : {
          "estimated_diameter_min" : 36.3529808636,
          "estimated_diameter_max" : 81.2877363957
        }
      },
      "is_potentially_hazardous_asteroid" : false,
      "close_approach_data" : [ {
        "close_approach_date" : "2007-12-15",
        "epoch_date_close_approach" : 1197705600000,
        "relative_velocity" : {
          "kilometers_per_second" : "6.6303267688",
          "kilometers_per_hour" : "23869.1763677798",
          "miles_per_hour" : "14831.3779491907"
        },
        "miss_distance" : {
          "astronomical" : "0.0554091776",
          "lunar" : "21.5541706085",
          "kilometers" : "8289095",
          "miles" : "5150605"
        },
        "orbiting_body" : "Earth"
      } ],
      "orbital_data" : {
        "orbit_id" : "9",
        "orbit_determination_date" : "2017-04-06 09:09:51",
        "orbit_uncertainty" : "7",
        "minimum_orbit_intersection" : ".00942737",
        "jupiter_tisserand_invariant" : "4.280",
        "epoch_osculation" : "2458000.5",
        "eccentricity" : ".376755007137461",
        "semi_major_axis" : "1.597967875630957",
        "inclination" : "4.401313302283969",
        "ascending_node_longitude" : "241.9541949068227",
        "orbital_period" : "737.8201188276944",
        "perihelion_distance" : ".9959254772421826",
        "perihelion_argument" : "180.4400223021835",
        "aphelion_distance" : "2.200010274019732",
        "perihelion_time" : "2458121.500911108444",
        "mean_anomaly" : "300.9607750080714",
        "mean_motion" : ".4879238052928074",
        "equinox" : "J2000"
      }
    }, {
      "links" : {
        "self" : "https://api.nasa.gov/neo/rest/v1/neo/3551070?api_key=t0TVs3DtDT2H8Oy2Zy8m2eVrNsAVKAexjcZXUckd"
      },
      "neo_reference_id" : "3551070",
      "name" : "(2010 VA76)",
      "nasa_jpl_url" : "http://ssd.jpl.nasa.gov/sbdb.cgi?sstr=3551070",
      "absolute_magnitude_h" : 24.0,
      "estimated_diameter" : {
        "kilometers" : {
          "estimated_diameter_min" : 0.0421264611,
          "estimated_diameter_max" : 0.0941976306
        },
        "meters" : {
          "estimated_diameter_min" : 42.1264610556,
          "estimated_diameter_max" : 94.1976305719
        },
        "miles" : {
          "estimated_diameter_min" : 0.0261761612,
          "estimated_diameter_max" : 0.0585316759
        },
        "feet" : {
          "estimated_diameter_min" : 138.2101784897,
          "estimated_diameter_max" : 309.0473542854
        }
      },
      "is_potentially_hazardous_asteroid" : false,
      "close_approach_data" : [ {
        "close_approach_date" : "2007-12-15",
        "epoch_date_close_approach" : 1197705600000,
        "relative_velocity" : {
          "kilometers_per_second" : "4.282842562",
          "kilometers_per_hour" : "15418.2332230939",
          "miles_per_hour" : "9580.2905268719"
        },
        "miss_distance" : {
          "astronomical" : "0.2603081477",
          "lunar" : "101.2598724365",
          "kilometers" : "38941544",
          "miles" : "24197154"
        },
        "orbiting_body" : "Earth"
      } ],
      "orbital_data" : {
        "orbit_id" : "16",
        "orbit_determination_date" : "2017-04-06 08:55:49",
        "orbit_uncertainty" : "5",
        "minimum_orbit_intersection" : ".180427",
        "jupiter_tisserand_invariant" : "3.639",
        "epoch_osculation" : "2458000.5",
        "eccentricity" : ".4456253321407759",
        "semi_major_axis" : "2.070345831580715",
        "inclination" : "4.35871715651435",
        "ascending_node_longitude" : "203.1428379967234",
        "orbital_period" : "1088.084869707726",
        "perihelion_distance" : "1.147747282736288",
        "perihelion_argument" : "246.2856471681774",
        "aphelion_distance" : "2.992944380425142",
        "perihelion_time" : "2457731.154325912960",
        "mean_anomaly" : "89.11477897618454",
        "mean_motion" : ".3308565443950164",
        "equinox" : "J2000"
      }
    }, {
      "links" : {
        "self" : "https://api.nasa.gov/neo/rest/v1/neo/3398134?api_key=t0TVs3DtDT2H8Oy2Zy8m2eVrNsAVKAexjcZXUckd"
      },
      "neo_reference_id" : "3398134",
      "name" : "(2007 YN1)",
      "nasa_jpl_url" : "http://ssd.jpl.nasa.gov/sbdb.cgi?sstr=3398134",
      "absolute_magnitude_h" : 25.0,
      "estimated_diameter" : {
        "kilometers" : {
          "estimated_diameter_min" : 0.02658,
          "estimated_diameter_max" : 0.0594346868
        },
        "meters" : {
          "estimated_diameter_min" : 26.58,
          "estimated_diameter_max" : 59.4346868419
        },
        "miles" : {
          "estimated_diameter_min" : 0.0165160412,
          "estimated_diameter_max" : 0.0369309908
        },
        "feet" : {
          "estimated_diameter_min" : 87.2047272,
          "estimated_diameter_max" : 194.9956979785
        }
      },
      "is_potentially_hazardous_asteroid" : false,
      "close_approach_data" : [ {
        "close_approach_date" : "2007-12-15",
        "epoch_date_close_approach" : 1197705600000,
        "relative_velocity" : {
          "kilometers_per_second" : "17.6611065723",
          "kilometers_per_hour" : "63579.9836604298",
          "miles_per_hour" : "39506.1292916709"
        },
        "miss_distance" : {
          "astronomical" : "0.0026307995",
          "lunar" : "1.0233809948",
          "kilometers" : "393562",
          "miles" : "244548.09375"
        },
        "orbiting_body" : "Earth"
      } ],
      "orbital_data" : {
        "orbit_id" : "11",
        "orbit_determination_date" : "2017-04-06 09:04:52",
        "orbit_uncertainty" : "8",
        "minimum_orbit_intersection" : ".00263167",
        "jupiter_tisserand_invariant" : "2.928",
        "epoch_osculation" : "2454456.5",
        "eccentricity" : ".7189582563476624",
        "semi_major_axis" : "2.696668593634402",
        "inclination" : "3.909430744920932",
        "ascending_node_longitude" : "84.78377629138326",
        "orbital_period" : "1617.483252701231",
        "perihelion_distance" : ".7578764436075094",
        "perihelion_argument" : "294.4609069191515",
        "aphelion_distance" : "4.635460743661295",
        "perihelion_time" : "2454410.631452550290",
        "mean_anomaly" : "10.20887051183935",
        "mean_motion" : ".2225679922180291",
        "equinox" : "J2000"
      }
    } ]
  }
}